CAS-2T & KS-1Q          
1 41847U 16066G   20323.11153727  .00000131  00000-0  29181-4 0  9990
2 41847  98.6343  15.0214 0366398 130.8455 232.5111 14.38112434211508
NAYIF-1 (EO-88)         
1 42017U 17008BX  20323.11531742  .00002476  00000-0  96114-4 0  9998
2 42017  97.3437  28.3351 0007417 129.5599 230.6297 15.27004084208998
ZHUHAI-1 02 (CAS-4B)    
1 42759U 17034B   20323.57345770  .00000656  00000-0  53128-4 0  9990
2 42759  43.0188 260.2055 0011445 283.3783 245.7122 15.09954392189268
ZHUHAI-1 01 (CAS-4A)    
1 42761U 17034D   20323.57581726  .00000623  00000-0  51027-4 0  9996
2 42761  43.0183 259.3907 0011857 284.8387 244.1317 15.10033795189260
MAX VALIER SAT          
1 42778U 17036P   20322.71620006  .00001442  00000-0  64314-4 0  9999
2 42778  97.2862  11.9731 0011655 195.1854 164.9035 15.22924630189052
RADFXSAT (FOX-1B)       
1 43017U 17073E   20322.96298464  .00000919  00000-0  77273-4 0  9999
2 43017  97.7158 229.2194 0254837 270.1315  87.0699 14.79149174161858
FOX-1D (AO-92)          
1 43137U 18004AC  20322.83651241  .00001681  00000-0  71365-4 0  9992
2 43137  97.4315  32.8585 0007797 229.9599 130.0955 15.24463883158411
DIWATA-2B               
1 43678U 18084H   20323.49262478  .00000129  00000-0  18541-4 0  9996
2 43678  97.9016  82.0485 0010765  34.7370 325.4565 14.91669966111989
ES'HAIL 2               
1 43700U 18090A   20322.74413199  .00000142  00000-0  00000+0 0  9995
2 43700   0.0120 283.7387 0001494 328.5038  98.7180  1.00272211  7493
FOX-1CLIFF (AO-95)      
1 43770U 18099N   20323.11191234  .00000052  00000-0  99751-5 0  9993
2 43770  97.6913  31.6964 0015548  48.1542 312.1003 14.95096690106875
ITASAT 1                
1 43786U 18099AE  20322.74013058  .00000720  00000-0  70178-4 0  9998
2 43786  97.6930  31.8608 0016036  43.3853 316.8627 14.95419902106848
JY1SAT (JO-97)          
1 43803U 18099AX  20322.73562644  .00000725  00000-0  70303-4 0  9992
2 43803  97.6890  31.6413 0015946  43.6322 316.6157 14.95617737106840
PSAT2 (NO-104)          
1 44354U 19036R   20323.05299666  .00023541  00000-0  33708-3 0  9991
2 44354  28.5294  89.7489 0351602 154.8052 207.0142 15.06722792 76975
BRICSAT2 (NO-103)       
1 44355U 19036S   20322.64517732  .00043820  00000-0  57579-3 0  9997
2 44355  28.5301  73.6558 0318111 180.9109 179.0924 15.15278719 77102
JAISAT-1                
1 44419U 19038F   20322.86774936  .00001575  00000-0  92388-4 0  9994
2 44419  97.5596 282.8541 0020518 325.9888  34.0027 15.13081758 75797
DUCHIFAT-3              
1 44854U 19089C   20323.55351850  .00000678  00000-0  60948-4 0  9996
2 44854  36.9669 267.5778 0008990 235.6546 124.3347 14.99200510 51433
RS-44 & BREEZE-KM R/B   
1 44909U 19096E   20322.75229995  .00000022  00000-0  46508-4 0  9999
2 44909  82.5221 253.4397 0216452 227.9332 130.3179 12.79708021 41791
ORBITAL FACTORY 2 (OF-2)
1 45113U 19071C   20323.33197419  .00004211  00000-0  13689-3 0  9997
2 45113  51.6430 339.8845 0012095 251.7280 108.2387 15.34064421 44745
HUSKYSAT-1              
1 45119U 19071J   20322.89995619  .00002403  00000-0  82643-4 0  9999
2 45119  51.6429 341.4998 0011356 246.6776 113.3012 15.34224836 44671
SALSAT                  
1 46495U 20068K   20322.80314030  .00000214  00000-0  20270-4 0  9994
2 46495  97.6736 255.8298 0019067  69.2959 291.0307 15.03256049  7532
